[
    {
        "CCSDS_OMM_VERS": "3.0",
        "COMMENT": "GENERATED VIA SPACE-TRACK.ORG API",
        "CREATION_DATE": "2025-05-03T17:28:03",
        "ORIGINATOR": "18 SPCS",
        "OBJECT_NAME": "GALILEO 13 (26A)",
        "OBJECT_ID": "2016-030B",
        "CENTER_NAME": "EARTH",
        "REF_FRAME": "TEME",
        "TIME_SYSTEM": "UTC",
        "MEAN_ELEMENT_THEORY": "SGP4",
        "EPOCH": "2025-05-02T10:40:37.550784",
        "MEAN_MOTION": "1.70474083",
        "ECCENTRICITY": "0.00026720",
        "INCLINATION": "55.2317",
        "RA_OF_ASC_NODE": "232.9892",
        "ARG_OF_PERICENTER": "214.1889",
        "MEAN_ANOMALY": "145.7987",
        "EPHEMERIS_TYPE": "0",
        "CLASSIFICATION_TYPE": "U",
        "NORAD_CAT_ID": "41550",
        "ELEMENT_SET_NO": "999",
        "REV_AT_EPOCH": "5566",
        "BSTAR": "0.00000000000000",
        "MEAN_MOTION_DOT": "-0.00000022",
        "MEAN_MOTION_DDOT": "0.0000000000000",
        "SEMIMAJOR_AXIS": "29600.310",
        "PERIOD": "844.703",
        "APOAPSIS": "23230.085",
        "PERIAPSIS": "23214.266",
        "OBJECT_TYPE": "PAYLOAD",
        "RCS_SIZE": "LARGE",
        "COUNTRY_CODE": "ESA",
        "LAUNCH_DATE": "2016-05-24",
        "SITE": "FRGUI",
        "DECAY_DATE": null,
        "FILE": "4717971",
        "GP_ID": "286760963",
        "TLE_LINE0": "0 GALILEO 13 (26A)",
        "TLE_LINE1": "1 41550U 16030B   25122.44487906 -.00000022  00000-0  00000-0 0  9994",
        "TLE_LINE2": "2 41550  55.2317 232.9892 0002672 214.1889 145.7987  1.70474083 55662"
    }
]